SOYUZ-MS 28             
1 66664U 25275A   26003.40374414  .00014825  00000+0  27593-3 0  9995
2 66664  51.6328  35.2048 0007560 335.4964  24.5664 15.49064236546214
1998-067XS              
1 66906U 98067XS  26003.37595841  .00037432  00000+0  61791-3 0  9995
2 66906  51.6319  35.0199 0002435 317.1596  42.9203 15.51888122  4978
1998-067XT              
1 66907U 98067XT  26003.34970210  .00110395  00000+0  16211-2 0  9996
2 66907  51.6314  34.8450 0003918 359.2248   0.8736 15.54636251  4970
1998-067XU              
1 66908U 98067XU  26003.34863058  .00114458  00000+0  16813-2 0  9990
2 66908  51.6306  34.8369 0003915 355.2960   4.7994 15.54610164  4979
SILVERSAT               
1 66909U 98067XV  26003.28037573  .00121416  00000+0  17490-2 0  9993
2 66909  51.6307  35.1315 0004042   3.2126 356.8890 15.55112972  4962
1998-067XW              
1 66910U 98067XW  26003.27962623  .00113492  00000+0  16509-2 0  9992
2 66910  51.6308  35.1258 0003245 335.6957  24.3880 15.54884246  4964
1998-067XX              
1 66911U 98067XX  26003.33603381  .00133933  00000+0  18813-2 0  9995
2 66911  51.6316  34.7530 0003095 350.1444   9.9486 15.55746909  4963
1998-067XY              
1 66912U 98067XY  26003.29494123  .00085142  00000+0  13036-2 0  9993
2 66912  51.6316  35.2295 0003743 346.2968  13.7920 15.53613153  4952
