CCSDS_OMM_VERS = 2.0
CREATION_DATE  = 
ORIGINATOR     = 

OBJECT_NAME    = SOYUZ-MS 28
OBJECT_ID      = 2025-275A
CENTER_NAME    = EARTH
REF_FRAME      = TEME
TIME_SYSTEM    = UTC
MEAN_ELEMENT_THEORY = SGP/SGP4

EPOCH          = 2026-01-03T09:41:23.493696
MEAN_MOTION    = 15.49064236
ECCENTRICITY   = .000756
INCLINATION    = 51.6328
RA_OF_ASC_NODE = 35.2048
ARG_OF_PERICENTER = 335.4964
MEAN_ANOMALY   = 24.5664

EPHEMERIS_TYPE = 0
CLASSIFICATION_TYPE = U
NORAD_CAT_ID   = 66664
ELEMENT_SET_NO = 999
REV_AT_EPOCH   = 54621
BSTAR          = .27593E-3
MEAN_MOTION_DOT = .14825E-3
MEAN_MOTION_DDOT = 0

CCSDS_OMM_VERS = 2.0
CREATION_DATE  = 
ORIGINATOR     = 

OBJECT_NAME    = 1998-067XS
OBJECT_ID      = 1998-067XS
CENTER_NAME    = EARTH
REF_FRAME      = TEME
TIME_SYSTEM    = UTC
MEAN_ELEMENT_THEORY = SGP/SGP4

EPOCH          = 2026-01-03T09:01:22.806624
MEAN_MOTION    = 15.51888122
ECCENTRICITY   = .0002435
INCLINATION    = 51.6319
RA_OF_ASC_NODE = 35.0199
ARG_OF_PERICENTER = 317.1596
MEAN_ANOMALY   = 42.9203

EPHEMERIS_TYPE = 0
CLASSIFICATION_TYPE = U
NORAD_CAT_ID   = 66906
ELEMENT_SET_NO = 999
REV_AT_EPOCH   = 497
BSTAR          = .61791E-3
MEAN_MOTION_DOT = .37432E-3
MEAN_MOTION_DDOT = 0

CCSDS_OMM_VERS = 2.0
CREATION_DATE  = 
ORIGINATOR     = 

OBJECT_NAME    = 1998-067XT
OBJECT_ID      = 1998-067XT
CENTER_NAME    = EARTH
REF_FRAME      = TEME
TIME_SYSTEM    = UTC
MEAN_ELEMENT_THEORY = SGP/SGP4

EPOCH          = 2026-01-03T08:23:34.261440
MEAN_MOTION    = 15.54636251
ECCENTRICITY   = .0003918
INCLINATION    = 51.6314
RA_OF_ASC_NODE = 34.8450
ARG_OF_PERICENTER = 359.2248
MEAN_ANOMALY   = 0.8736

EPHEMERIS_TYPE = 0
CLASSIFICATION_TYPE = U
NORAD_CAT_ID   = 66907
ELEMENT_SET_NO = 999
REV_AT_EPOCH   = 497
BSTAR          = .16211E-2
MEAN_MOTION_DOT = .110395E-2
MEAN_MOTION_DDOT = 0

CCSDS_OMM_VERS = 2.0
CREATION_DATE  = 
ORIGINATOR     = 

OBJECT_NAME    = 1998-067XU
OBJECT_ID      = 1998-067XU
CENTER_NAME    = EARTH
REF_FRAME      = TEME
TIME_SYSTEM    = UTC
MEAN_ELEMENT_THEORY = SGP/SGP4

EPOCH          = 2026-01-03T08:22:01.682112
MEAN_MOTION    = 15.54610164
ECCENTRICITY   = .0003915
INCLINATION    = 51.6306
RA_OF_ASC_NODE = 34.8369
ARG_OF_PERICENTER = 355.2960
MEAN_ANOMALY   = 4.7994

EPHEMERIS_TYPE = 0
CLASSIFICATION_TYPE = U
NORAD_CAT_ID   = 66908
ELEMENT_SET_NO = 999
REV_AT_EPOCH   = 497
BSTAR          = .16813E-2
MEAN_MOTION_DOT = .114458E-2
MEAN_MOTION_DDOT = 0

CCSDS_OMM_VERS = 2.0
CREATION_DATE  = 
ORIGINATOR     = 

OBJECT_NAME    = SILVERSAT
OBJECT_ID      = 1998-067XV
CENTER_NAME    = EARTH
REF_FRAME      = TEME
TIME_SYSTEM    = UTC
MEAN_ELEMENT_THEORY = SGP/SGP4

EPOCH          = 2026-01-03T06:43:44.463072
MEAN_MOTION    = 15.55112972
ECCENTRICITY   = .0004042
INCLINATION    = 51.6307
RA_OF_ASC_NODE = 35.1315
ARG_OF_PERICENTER = 3.2126
MEAN_ANOMALY   = 356.8890

EPHEMERIS_TYPE = 0
CLASSIFICATION_TYPE = U
NORAD_CAT_ID   = 66909
ELEMENT_SET_NO = 999
REV_AT_EPOCH   = 496
BSTAR          = .1749E-2
MEAN_MOTION_DOT = .121416E-2
MEAN_MOTION_DDOT = 0

CCSDS_OMM_VERS = 2.0
CREATION_DATE  = 
ORIGINATOR     = 

OBJECT_NAME    = 1998-067XW
OBJECT_ID      = 1998-067XW
CENTER_NAME    = EARTH
REF_FRAME      = TEME
TIME_SYSTEM    = UTC
MEAN_ELEMENT_THEORY = SGP/SGP4

EPOCH          = 2026-01-03T06:42:39.706272
MEAN_MOTION    = 15.54884246
ECCENTRICITY   = .0003245
INCLINATION    = 51.6308
RA_OF_ASC_NODE = 35.1258
ARG_OF_PERICENTER = 335.6957
MEAN_ANOMALY   = 24.3880

EPHEMERIS_TYPE = 0
CLASSIFICATION_TYPE = U
NORAD_CAT_ID   = 66910
ELEMENT_SET_NO = 999
REV_AT_EPOCH   = 496
BSTAR          = .16509E-2
MEAN_MOTION_DOT = .113492E-2
MEAN_MOTION_DDOT = 0

CCSDS_OMM_VERS = 2.0
CREATION_DATE  = 
ORIGINATOR     = 

OBJECT_NAME    = 1998-067XX
OBJECT_ID      = 1998-067XX
CENTER_NAME    = EARTH
REF_FRAME      = TEME
TIME_SYSTEM    = UTC
MEAN_ELEMENT_THEORY = SGP/SGP4

EPOCH          = 2026-01-03T08:03:53.321184
MEAN_MOTION    = 15.55746909
ECCENTRICITY   = .0003095
INCLINATION    = 51.6316
RA_OF_ASC_NODE = 34.7530
ARG_OF_PERICENTER = 350.1444
MEAN_ANOMALY   = 9.9486

EPHEMERIS_TYPE = 0
CLASSIFICATION_TYPE = U
NORAD_CAT_ID   = 66911
ELEMENT_SET_NO = 999
REV_AT_EPOCH   = 496
BSTAR          = .18813E-2
MEAN_MOTION_DOT = .133933E-2
MEAN_MOTION_DDOT = 0

CCSDS_OMM_VERS = 2.0
CREATION_DATE  = 
ORIGINATOR     = 

OBJECT_NAME    = 1998-067XY
OBJECT_ID      = 1998-067XY
CENTER_NAME    = EARTH
REF_FRAME      = TEME
TIME_SYSTEM    = UTC
MEAN_ELEMENT_THEORY = SGP/SGP4

EPOCH          = 2026-01-03T07:04:42.922272
MEAN_MOTION    = 15.53613153
ECCENTRICITY   = .0003743
INCLINATION    = 51.6316
RA_OF_ASC_NODE = 35.2295
ARG_OF_PERICENTER = 346.2968
MEAN_ANOMALY   = 13.7920

EPHEMERIS_TYPE = 0
CLASSIFICATION_TYPE = U
NORAD_CAT_ID   = 66912
ELEMENT_SET_NO = 999
REV_AT_EPOCH   = 495
BSTAR          = .13036E-2
MEAN_MOTION_DOT = .85142E-3
MEAN_MOTION_DDOT = 0

